start=new Date('2022-08-12T00:00:00.000Z').valueOf();
sats=[{"FILE":"3534337","BSTAR":"-0.00100030000000","RCS_SIZE":"LARGE","CLASSIFICATION_TYPE":"U","RA_OF_ASC_NODE":"71.3293","MEAN_ANOMALY":"282.8991","INCLINATION":"53.2168","NORAD_CAT_ID":"51804","TIME_SYSTEM":"UTC","MEAN_ELEMENT_THEORY":"SGP4","REV_AT_EPOCH":"2711","LAUNCH_DATE":"2022-02-25","PERIAPSIS":"538.832","MEAN_MOTION":"15.08848324","CENTER_NAME":"EARTH","OBJECT_TYPE":"PAYLOAD","MEAN_MOTION_DOT":"-0.00016176","EPHEMERIS_TYPE":"0","SITE":"AFWTR","ARG_OF_PERICENTER":"88.7272","EPOCH":"2022-08-11T20:00:01.000224","GP_ID":"210031846","TLE_LINE1":"1 51804U 22017AN  22223.83334491 -.00016176  00000-0 -10003-2 0  9995","SEMIMAJOR_AXIS":"6917.855","ECCENTRICITY":"0.00012830","REF_FRAME":"TEME","MEAN_MOTION_DDOT":"0.0000000000000","TLE_LINE2":"2 51804  53.2168  71.3293 0001283  88.7272 282.8991 15.08848324 27111","OBJECT_ID":"2022-017AN","OBJECT_NAME":"STARLINK-3601","ELEMENT_SET_NO":"999","DECAY_DATE":null,"PERIOD":"95.437","APOAPSIS":"540.608","COUNTRY_CODE":"US"},{"MEAN_MOTION":"15.08841130","OBJECT_TYPE":"PAYLOAD","CENTER_NAME":"EARTH","MEAN_MOTION_DOT":"-0.00016905","SITE":"AFWTR","EPHEMERIS_TYPE":"0","ARG_OF_PERICENTER":"62.8659","EPOCH":"2022-08-11T20:00:01.000224","GP_ID":"210031873","TLE_LINE1":"1 51805U 22017AP  22223.83334491 -.00016905  00000-0 -10465-2 0  9998","BSTAR":"-0.00104650000000","FILE":"3534342","RCS_SIZE":"LARGE","RA_OF_ASC_NODE":"71.3349","CLASSIFICATION_TYPE":"U","NORAD_CAT_ID":"51805","INCLINATION":"53.2151","MEAN_ANOMALY":"328.7260","MEAN_ELEMENT_THEORY":"SGP4","TIME_SYSTEM":"UTC","LAUNCH_DATE":"2022-02-25","REV_AT_EPOCH":"2710","PERIAPSIS":"538.600","OBJECT_NAME":"STARLINK-3605","ELEMENT_SET_NO":"999","PERIOD":"95.437","DECAY_DATE":null,"APOAPSIS":"540.884","COUNTRY_CODE":"US","SEMIMAJOR_AXIS":"6917.877","ECCENTRICITY":"0.00016510","MEAN_MOTION_DDOT":"0.0000000000000","REF_FRAME":"TEME","TLE_LINE2":"2 51805  53.2151  71.3349 0001651  62.8659 328.7260 15.08841130 27103","OBJECT_ID":"2022-017AP"},{"TLE_LINE2":"2 51806  53.2162  81.3506 0002065  63.7912 252.8360 15.08832418 26920","MEAN_MOTION_DDOT":"0.0000000000000","REF_FRAME":"TEME","OBJECT_ID":"2022-017AQ","SEMIMAJOR_AXIS":"6917.904","ECCENTRICITY":"0.00020650","DECAY_DATE":null,"PERIOD":"95.438","COUNTRY_CODE":"US","APOAPSIS":"541.197","OBJECT_NAME":"STARLINK-3581","ELEMENT_SET_NO":"999","PERIAPSIS":"538.340","REV_AT_EPOCH":"2692","LAUNCH_DATE":"2022-02-25","RA_OF_ASC_NODE":"81.3506","CLASSIFICATION_TYPE":"U","FILE":"3534344","RCS_SIZE":"LARGE","BSTAR":"-0.00115160000000","MEAN_ELEMENT_THEORY":"SGP4","TIME_SYSTEM":"UTC","NORAD_CAT_ID":"51806","INCLINATION":"53.2162","MEAN_ANOMALY":"252.8360","GP_ID":"210031672","EPOCH":"2022-08-11T20:00:01.000224","TLE_LINE1":"1 51806U 22017AQ  22223.83334491 -.00018566  00000-0 -11516-2 0  9992","OBJECT_TYPE":"PAYLOAD","MEAN_MOTION_DOT":"-0.00018566","CENTER_NAME":"EARTH","MEAN_MOTION":"15.08832418","ARG_OF_PERICENTER":"63.7912","SITE":"AFWTR","EPHEMERIS_TYPE":"0"},{"SEMIMAJOR_AXIS":"6917.890","ECCENTRICITY":"0.00017590","MEAN_MOTION_DDOT":"0.0000000000000","REF_FRAME":"TEME","TLE_LINE2":"2 51807  53.2172  81.3516 0001759  61.0834 215.6088 15.08836814 26968","OBJECT_ID":"2022-017AR","OBJECT_NAME":"STARLINK-3606","ELEMENT_SET_NO":"999","DECAY_DATE":null,"PERIOD":"95.438","APOAPSIS":"540.972","COUNTRY_CODE":"US","FILE":"3534344","BSTAR":"-0.00100850000000","RCS_SIZE":"LARGE","RA_OF_ASC_NODE":"81.3516","CLASSIFICATION_TYPE":"U","NORAD_CAT_ID":"51807","INCLINATION":"53.2172","MEAN_ANOMALY":"215.6088","TIME_SYSTEM":"UTC","MEAN_ELEMENT_THEORY":"SGP4","LAUNCH_DATE":"2022-02-25","REV_AT_EPOCH":"2696","PERIAPSIS":"538.538","MEAN_MOTION":"15.08836814","MEAN_MOTION_DOT":"-0.00016301","OBJECT_TYPE":"PAYLOAD","CENTER_NAME":"EARTH","SITE":"AFWTR","EPHEMERIS_TYPE":"0","ARG_OF_PERICENTER":"61.0834","GP_ID":"210031900","EPOCH":"2022-08-11T20:00:01.000224","TLE_LINE1":"1 51807U 22017AR  22223.83334491 -.00016301  00000-0 -10085-2 0  9998"},{"TLE_LINE2":"2 51808  53.2185  82.4717 0001712  70.9643   6.9778 15.08804030  1307","MEAN_MOTION_DDOT":"0.0000000000000","REF_FRAME":"TEME","OBJECT_ID":"2022-017AS","SEMIMAJOR_AXIS":"6917.990","ECCENTRICITY":"0.00017120","PERIOD":"95.440","DECAY_DATE":null,"COUNTRY_CODE":"US","APOAPSIS":"541.040","OBJECT_NAME":"STARLINK-3609","ELEMENT_SET_NO":"999","PERIAPSIS":"538.671","REV_AT_EPOCH":"130","LAUNCH_DATE":"2022-02-25","RA_OF_ASC_NODE":"82.4717","CLASSIFICATION_TYPE":"U","BSTAR":"0.00212620000000","FILE":"3534319","RCS_SIZE":"LARGE","MEAN_ELEMENT_THEORY":"SGP4","TIME_SYSTEM":"UTC","INCLINATION":"53.2185","NORAD_CAT_ID":"51808","MEAN_ANOMALY":"6.9778","GP_ID":"210029823","EPOCH":"2022-08-11T14:00:01.000224","TLE_LINE1":"1 51808U 22017AS  22223.58334491  .00033679  00000-0  21262-2 0  9995","OBJECT_TYPE":"PAYLOAD","CENTER_NAME":"EARTH","MEAN_MOTION_DOT":"0.00033679","MEAN_MOTION":"15.08804030","ARG_OF_PERICENTER":"70.9643","SITE":"AFWTR","EPHEMERIS_TYPE":"0"},{"ECCENTRICITY":"0.00020590","SEMIMAJOR_AXIS":"6917.971","OBJECT_ID":"2022-017AT","MEAN_MOTION_DDOT":"0.0000000000000","REF_FRAME":"TEME","TLE_LINE2":"2 51809  53.2168  80.6007 0002059  62.2302  60.2389 15.08810510 26940","ELEMENT_SET_NO":"999","OBJECT_NAME":"STARLINK-3607","APOAPSIS":"541.260","COUNTRY_CODE":"US","DECAY_DATE":null,"PERIOD":"95.439","INCLINATION":"53.2168","NORAD_CAT_ID":"51809","MEAN_ANOMALY":"60.2389","TIME_SYSTEM":"UTC","MEAN_ELEMENT_THEORY":"SGP4","FILE":"3534797","RCS_SIZE":"LARGE","BSTAR":"0.00237430000000","RA_OF_ASC_NODE":"80.6007","CLASSIFICATION_TYPE":"U","LAUNCH_DATE":"2022-02-25","REV_AT_EPOCH":"2694","PERIAPSIS":"538.411","SITE":"AFWTR","EPHEMERIS_TYPE":"0","ARG_OF_PERICENTER":"62.2302","MEAN_MOTION":"15.08810510","MEAN_MOTION_DOT":"0.00037671","OBJECT_TYPE":"PAYLOAD","CENTER_NAME":"EARTH","TLE_LINE1":"1 51809U 22017AT  22224.00001157  .00037671  00000-0  23743-2 0  9996","EPOCH":"2022-08-12T00:00:00.999648","GP_ID":"210042469"},{"OBJECT_ID":"2022-017AU","REF_FRAME":"TEME","MEAN_MOTION_DDOT":"0.0000000000000","TLE_LINE2":"2 51810  53.2179  70.9548 0001395  85.1007 234.1820 15.08832185 27073","ECCENTRICITY":"0.00013950","SEMIMAJOR_AXIS":"6917.904","APOAPSIS":"540.734","COUNTRY_CODE":"US","DECAY_DATE":null,"PERIOD":"95.438","ELEMENT_SET_NO":"999","OBJECT_NAME":"STARLINK-3613","LAUNCH_DATE":"2022-02-25","REV_AT_EPOCH":"2707","PERIAPSIS":"538.804","MEAN_ANOMALY":"234.1820","NORAD_CAT_ID":"51810","INCLINATION":"53.2179","TIME_SYSTEM":"UTC","MEAN_ELEMENT_THEORY":"SGP4","FILE":"3534761","RCS_SIZE":"LARGE","BSTAR":"0.00096364000000","CLASSIFICATION_TYPE":"U","RA_OF_ASC_NODE":"70.9548","TLE_LINE1":"1 51810U 22017AU  22223.91667824  .00015078  00000-0  96364-3 0  9993","GP_ID":"210041752","EPOCH":"2022-08-11T22:00:00.999936","EPHEMERIS_TYPE":"0","SITE":"AFWTR","ARG_OF_PERICENTER":"85.1007","MEAN_MOTION":"15.08832185","OBJECT_TYPE":"PAYLOAD","MEAN_MOTION_DOT":"0.00015078","CENTER_NAME":"EARTH"},{"RA_OF_ASC_NODE":"81.3483","CLASSIFICATION_TYPE":"U","RCS_SIZE":"LARGE","FILE":"3534347","BSTAR":"-0.00118400000000","MEAN_ELEMENT_THEORY":"SGP4","TIME_SYSTEM":"UTC","NORAD_CAT_ID":"51811","INCLINATION":"53.2172","MEAN_ANOMALY":"268.9073","PERIAPSIS":"538.442","REV_AT_EPOCH":"2692","LAUNCH_DATE":"2022-02-25","CENTER_NAME":"EARTH","OBJECT_TYPE":"PAYLOAD","MEAN_MOTION_DOT":"-0.00019089","MEAN_MOTION":"15.08853942","ARG_OF_PERICENTER":"67.7247","SITE":"AFWTR","EPHEMERIS_TYPE":"0","EPOCH":"2022-08-11T20:00:01.000224","GP_ID":"210031937","TLE_LINE1":"1 51811U 22017AV  22223.83334491 -.00019089  00000-0 -11840-2 0  9999","SEMIMAJOR_AXIS":"6917.838","ECCENTRICITY":"0.00018220","TLE_LINE2":"2 51811  53.2172  81.3483 0001822  67.7247 268.9073 15.08853942 26920","MEAN_MOTION_DDOT":"0.0000000000000","REF_FRAME":"TEME","OBJECT_ID":"2022-017AV","OBJECT_NAME":"STARLINK-3569","ELEMENT_SET_NO":"999","PERIOD":"95.437","DECAY_DATE":null,"COUNTRY_CODE":"US","APOAPSIS":"540.963"},{"DECAY_DATE":null,"PERIOD":"95.437","APOAPSIS":"540.620","COUNTRY_CODE":"US","OBJECT_NAME":"STARLINK-3610","ELEMENT_SET_NO":"999","MEAN_MOTION_DDOT":"0.0000000000000","REF_FRAME":"TEME","TLE_LINE2":"2 51812  53.2166  71.3258 0001326  78.7156 212.9190 15.08854045 27052","OBJECT_ID":"2022-017AW","SEMIMAJOR_AXIS":"6917.837","ECCENTRICITY":"0.00013260","EPOCH":"2022-08-11T20:00:01.000224","GP_ID":"210032043","TLE_LINE1":"1 51812U 22017AW  22223.83334491 -.00015327  00000-0 -94661-3 0  9994","MEAN_MOTION":"15.08854045","OBJECT_TYPE":"PAYLOAD","CENTER_NAME":"EARTH","MEAN_MOTION_DOT":"-0.00015327","SITE":"AFWTR","EPHEMERIS_TYPE":"0","ARG_OF_PERICENTER":"78.7156","LAUNCH_DATE":"2022-02-25","REV_AT_EPOCH":"2705","PERIAPSIS":"538.785","BSTAR":"-0.00094661000000","FILE":"3534347","RCS_SIZE":"LARGE","RA_OF_ASC_NODE":"71.3258","CLASSIFICATION_TYPE":"U","INCLINATION":"53.2166","NORAD_CAT_ID":"51812","MEAN_ANOMALY":"212.9190","TIME_SYSTEM":"UTC","MEAN_ELEMENT_THEORY":"SGP4"},{"LAUNCH_DATE":"2022-02-25","REV_AT_EPOCH":"130","PERIAPSIS":"538.840","MEAN_ANOMALY":"54.0640","NORAD_CAT_ID":"51813","INCLINATION":"53.2163","MEAN_ELEMENT_THEORY":"SGP4","TIME_SYSTEM":"UTC","RCS_SIZE":"LARGE","FILE":"3534319","BSTAR":"0.00119010000000","CLASSIFICATION_TYPE":"U","RA_OF_ASC_NODE":"72.4570","TLE_LINE1":"1 51813U 22017AX  22223.58334491  .00018690  00000-0  11901-2 0  9996","EPOCH":"2022-08-11T14:00:01.000224","GP_ID":"210028588","EPHEMERIS_TYPE":"0","SITE":"AFWTR","ARG_OF_PERICENTER":"73.6818","MEAN_MOTION":"15.08813925","OBJECT_TYPE":"PAYLOAD","CENTER_NAME":"EARTH","MEAN_MOTION_DOT":"0.00018690","OBJECT_ID":"2022-017AX","REF_FRAME":"TEME","MEAN_MOTION_DDOT":"0.0000000000000","TLE_LINE2":"2 51813  53.2163  72.4570 0001424  73.6818  54.0640 15.08813925  1304","ECCENTRICITY":"0.00014240","SEMIMAJOR_AXIS":"6917.960","APOAPSIS":"540.810","COUNTRY_CODE":"US","PERIOD":"95.439","DECAY_DATE":null,"ELEMENT_SET_NO":"999","OBJECT_NAME":"STARLINK-3552"}];
